No.,furigana,namae,postal_code,address,phone,email,question1,question2,question3,filename
1,シミズハヤト,清水勇人,330-9588,さいたま市浦和区常盤６－４－４,048-829-1111,g5vwj84@kztir.com,1,3,1,ca (1).svg
2,カワイヨシアキ,川合善明,350-8601,川越市元町１－３－１,049-224-8811,l29ras@mcyrb.jp,2,2,2,ca (2).svg
3,コバヤシテツヤ,小林哲也,360-8601,熊谷市宮町２－４７－１,048-524-1111,cnukop@zfyq.jp,3,1,2,ca (3).svg
4,オクノキノブオ,奥ノ木信夫,332-8601,川口市青木２－１－１,048-258-1110,ugx2td@dgqcue.net,4,2,1,ca (4).svg
5,ギョウダクニコ,行田邦子,361-8601,行田市本丸２－５,048-556-1111,bo85kih@nimj.net,5,3,2,ca (5).svg
6,キタボリアツシ,北堀篤,368-8686,秩父市熊木町８－１５,0494-22-2211,3nmeoy9@cqap.co.jp,6,2,1,ca (6).svg
7,オノヅカマサトシ,小野塚勝俊,359-8501,所沢市並木１－１－１,04-2998-1111,6vokdr@uszimw.co.jp,1,1,1,ca (7).svg
8,アライシゲハル,新井重治,357-8501,飯能市大字双柳１－１,042-973-2111,2ntwbga@zqcro.jp,2,2,2,ca (8).svg
9,ツノダモリヨシ,角田守良,347-8501,加須市三俣２－１－１,0480-62-1111,aw2m9p@kjsti.com,3,1,1,ca (9).svg
10,ヨシダゲシン,吉田信解,367-8501,本庄市本庄３－５－３,0495-25-1111,tzc4rl7@ewhu.net,4,2,2,ca (10).svg
11,モリタコウイチ,森田光一,355-8601,東松山市松葉町１－１－５８,0493-23-2221,0ja7ru@xgcnb.ne.jp,5,3,1,ca (11).svg
12,イワヤカズヒロ,岩谷一弘,344-8577,春日部市中央７－２ー１,048-736-1111,u9einr@galpbq.jp,6,2,1,ca (12).svg
13,コヤノツヨシ,小谷野剛,350-1380,狭山市入間川１－２３－５,04-2953-1111,l4k7ugb@jbxrl.co.jp,1,1,2,ca (13).svg
14,カワタテルアキ,河田晃明,348-8601,羽生市東６－１５,048-561-1121,uapzjq@djeq.co.jp,2,2,1,ca (14).svg
15,ナミキマサトシ,並木正年,365-8601,鴻巣市中央１－１,048-541-1321,4ncu23@xsckrv.ne.jp,3,2,1,ca (15).svg
16,コジマスス,小島進,366-8501,深谷市仲町１１－１,048-571-1211,gqxw2k@snraec.co.jp,4,1,2,ca (16).svg
17,ハタケヤマミノル,畠山稔,362-8501,上尾市本町３－１－１,048-775-5111,qiyflt@czma.com,5,2,1,ca (17).svg
18,ヤマカワユリコ,山川百合子,340-8550,草加市高砂１－１－１,048-922-0151,zylvek@poky.com,6,3,2,ca (18).svg
19,フクダアキラ,福田晃,343-8501,越谷市越ヶ谷４－２－１,048-964-2111,eim3kx4@bmdpo.co.jp,1,3,2,ca (19).svg
20,ヨリタカヒデオ,賴髙英雄,335-8501,蕨市中央５－１４－１５,048-432-3200,rx9b263@qkmct.ne.jp,2,3,1,ca (20).svg
21,スガワラフミヒト,菅原文仁,335-8588,戸田市上戸田１－１８－１,048-441-1800,aiyu65@vamwk.com,3,2,2,ca (21).svg
22,スギシマリイチロウ,杉島理一郎,358-8511,入間市豊岡１－１６－１,04-2964-1111,4imfj@empkc.net,4,2,1,ca (22).svg
23,トミオカマサノリ,富岡勝則,351-8501,朝霞市本町１－１－１,048-463-1111,5hrz9fk@zdqknt.jp,5,1,2,ca (23).svg
24,カガワタケフミ,香川武文,353-8501,志木市中宗岡１－１－１,048-473-1111,1owyj9i@svhck.ne.jp,6,2,1,ca (24).svg
25,シバサキミツコ,柴﨑光子,351-0192,和光市広沢１－５,048-464-1111,5v3fxso@rzkhbo.jp,1,3,1,ca (25).svg
26,ナミキマサル,並木傑,352-8623,新座市野火止１－１－１,048-477-1111,52rkfc@2fp.net,2,3,2,ca (26).svg
27,オノカツノリ,小野克典,363-8501,桶川市泉１－３－２８,048-786-3211,876ukcv@wpxzcm.com,5,1,2,ca (27).svg
28,ウメダシュウイチ,梅田修一,346-8501,久喜市下早見８５－３,0480-22-1111,rt0p4j@drsqn.net,2,2,2,ca (28).svg
29,サンノミヤユキオ,三宮幸雄,364-8633,北本市本町１－１１１,048-591-1111,qbgm8r0@jheoga.ne.jp,5,3,1,ca (29).svg
30,オオヤマシノブ,大山忍,340-8588,八潮市中央１－２－１,048-996-2111,5zpvr@pmitsg.net,6,2,2,ca (30).svg
31,ホシノミツヒロ,星野光弘,354-8511,富士見市大字鶴馬１８００－１,049-251-2711,0u7c8@btwpa.ne.jp,1,1,1,ca (31).svg
32,キヅマサアキラ,木津雅晟,341-8501,三郷市花和田６４８－１,048-953-1111,mk8lbg@fxpudk.ne.jp,6,2,2,ca (32).svg
33,ヤマグチキョウコ,山口京子,349-0193,蓮田市大字黒浜２７９９－１,048-768-3111,f69j7l@ajgof.ne.jp,3,2,1,ca (33).svg
34,イシカワキヨシ,石川清,350-0292,坂戸市千代田１－１－１,049-283-1331,t6edo@uxqd.ne.jp,4,1,2,ca (34).svg
35,キムラスミオ,木村純夫,340-0192,幸手市東４－６－８,0480-43-1111,g2i796q@neqhct.com,5,2,1,ca (35).svg
36,サイトウヨシヒサ,齊藤芳久,350-2292,鶴ヶ島市大字三ツ木１６－１,049-271-1111,1lj4sqm@plqub.co.jp,1,3,2,ca (36).svg
37,ヤガサキテルオ,谷ケ﨑照雄,350-1292,日高市大字南平沢１０２０,042-989-2111,qb6a03l@ljgm.com,1,2,1,ca (37).svg
38,ナカハラメグヒト,中原恵人,342-8501,吉川市きよみ野１－１,048-982-5111,oez41w@olipfy.com,2,1,2,ca (38).svg
39,タカハタヒロシ,高畑博,356-8501,ふじみ野市福岡１－１－１,049-261-2611,djg6wf@jziw.jp,3,3,2,ca (39).svg
40,フジイエイイチロウ,藤井栄一郎,349-0292,白岡市千駄野４３２,0480-92-1111,a2y68or@pltc.net,4,3,1,ca (40).svg
41,オオシマキヨシ,大島清,362-8517,伊奈町中央４－３５５,048-721-2111,d0ska82@pogxj.net,3,2,2,ca (41).svg
42,ハヤシイサオス,林伊佐雄,354-8555,三芳町大字藤久保１１００－１,049-258-0019,sw684g1@lsutdo.net,6,1,1,ca (42).svg
43,イノウエケンジ,井上健次,350-0493,毛呂山町中央２－１,049-295-2112,yfixngu@mkue.net,1,3,2,ca (43).svg
44,アライヤスユキ,新井康之,350-0494,越生町大字越生９００－２,049-292-3121,y4v6en@hyiogx.ne.jp,2,2,1,ca (44).svg
45,オオツカシンイチ,大塚信一,355-8585,滑川町大字福田７５０－１,0493-56-2211,x6og9a@jdiyz.co.jp,3,2,1,ca (45).svg
46,サクマタカミツ,佐久間孝光,355-0211,嵐山町大字杉山１０３０－１,0493-62-2150,y3vlkh7@ytbmzf.com,4,1,2,ca (46).svg
47,シマダヤスヒロ,島田康弘,355-0392,小川町大字大塚５５,0493-72-1221,0ldfoh@dslyf.co.jp,5,3,1,ca (47).svg
48,イイジマカズオ,飯島和夫,350-0192,川島町大字下八ツ林８７０ー１,049-297-1811,xk4b6j@eiud.ne.jp,1,1,2,ca (48).svg
49,ミヤサキヨオス,宮﨑善雄,355-0192,吉見町大字下細谷４１１,0493-54-1511,lm6rg@vamg.com,6,1,1,ca (49).svg
50,コミネタカオ,小峰孝雄,350-0392,鳩山町大字大豆戸１８４－１６,049-296-1211,ukcjmwn@ueldjf.jp,2,3,2,ca (50).svg
51,ワタナベカズミ,渡邉一美,355-0395,ときがわ町大字玉川２４９０,0493-65-1521,jx8lc@wmesnb.com,5,3,1,ca (51).svg
52,トミタノウセイ,富田能成,368-0072,横瀬町大字横瀬４５４５,0494-25-0111,x0jhrod@wjcosl.net,4,2,2,ca (52).svg
53,シバサキツトム,柴﨑勉,369-1492,皆野町大字皆野１４２０－１,0494-62-1230,upyeva@burn.co.jp,5,1,1,ca (53).svg
54,オオサワタキエ,大澤タキ江,369-1392,長瀞町大字本野上１０３５－１,0494-66-3111,2a819@hadon.ne.jp,6,3,2,ca (54).svg
55,モリシンタロウ,森真太郎,368-0192,小鹿野町小鹿野８９,0494-75-1221,6wonp8y@zneu.net,1,1,1,ca (55).svg
56,アダチリスケ,足立理助,355-0393,東秩父村大字御堂６３４,0493-82-1221,kbyc4f@qwfuzj.net,5,1,2,ca (56).svg
57,ハラダシンジ,原田信次,367-0194,美里町大字木部３２３－１,0495-76-1111,oykjiu@wvrxed.com,4,3,1,ca (57).svg
58,サクラサワアキラ,櫻澤晃,367-0292,神川町大字植竹９０９,0495-77-2111,ny9xc2k@fsaeo.jp,1,3,1,ca (58).svg
59,ヤマシタヒロイチ,山下博一,369-0392,上里町大字七本木５５１８,0495-35-1221,vgqnpx1@shuz.co.jp,5,2,2,ca (59).svg
60,ミネギシカツアキ,峯岸克明,369-1292,寄居町大字寄居１１８０－１,048-581-2121,fyj34@qmrlhu.net,6,2,2,ca (60).svg
61,アライヤスユキ,新井康之,345-8504,宮代町笠原１－４－１,0480-34-1111,ic6yl@ftea.jp,1,1,1,ca (61).svg
62,クボタヒロユキ,窪田裕之,345-8502,杉戸町清地２－９－２９,0480-33-1111,imecq@jqvcsd.jp,6,1,1,ca (62).svg
63,スズキマサル,鈴木勝,343-0192,松伏町大字松伏２４２４,048-991-2711,uvr9p@bcgy.ne.jp,3,3,2,ca (63).svg
